CCSDS_OMM_VERS = 2.0
CREATION_DATE  = 
ORIGINATOR     = 

OBJECT_NAME    = STARLINK-35904
OBJECT_ID      = 2025-271L
CENTER_NAME    = EARTH
REF_FRAME      = TEME
TIME_SYSTEM    = UTC
MEAN_ELEMENT_THEORY = SGP/SGP4

EPOCH          = 2025-12-17T22:00:01.999584
MEAN_MOTION    = 15.45061365
ECCENTRICITY   = .00013782
INCLINATION    = 53.1598
RA_OF_ASC_NODE = 162.4557
ARG_OF_PERICENTER = 75.1867
MEAN_ANOMALY   = 116.2281

EPHEMERIS_TYPE = 0
CLASSIFICATION_TYPE = U
NORAD_CAT_ID   = 66627
ELEMENT_SET_NO = 999
REV_AT_EPOCH   = 491
BSTAR          = -.47552226E-1
MEAN_MOTION_DOT = -.2032314E-1
MEAN_MOTION_DDOT = 0

CCSDS_OMM_VERS = 2.0
CREATION_DATE  = 
ORIGINATOR     = 

OBJECT_NAME    = STARLINK-35862
OBJECT_ID      = 2025-271M
CENTER_NAME    = EARTH
REF_FRAME      = TEME
TIME_SYSTEM    = UTC
MEAN_ELEMENT_THEORY = SGP/SGP4

EPOCH          = 2025-12-17T19:35:27.620160
MEAN_MOTION    = 15.49271616
ECCENTRICITY   = .00006605
INCLINATION    = 53.1595
RA_OF_ASC_NODE = 162.9167
ARG_OF_PERICENTER = 54.5252
MEAN_ANOMALY   = 305.5819

EPHEMERIS_TYPE = 0
CLASSIFICATION_TYPE = U
NORAD_CAT_ID   = 66628
ELEMENT_SET_NO = 999
REV_AT_EPOCH   = 499
BSTAR          = .12367513E-2
MEAN_MOTION_DOT = .68852E-3
MEAN_MOTION_DDOT = 0

CCSDS_OMM_VERS = 2.0
CREATION_DATE  = 
ORIGINATOR     = 

OBJECT_NAME    = STARLINK-35956
OBJECT_ID      = 2025-271N
CENTER_NAME    = EARTH
REF_FRAME      = TEME
TIME_SYSTEM    = UTC
MEAN_ELEMENT_THEORY = SGP/SGP4

EPOCH          = 2025-12-17T19:34:55.834464
MEAN_MOTION    = 15.49388285
ECCENTRICITY   = .00011128
INCLINATION    = 53.1592
RA_OF_ASC_NODE = 162.9137
ARG_OF_PERICENTER = 52.1003
MEAN_ANOMALY   = 308.0107

EPHEMERIS_TYPE = 0
CLASSIFICATION_TYPE = U
NORAD_CAT_ID   = 66629
ELEMENT_SET_NO = 999
REV_AT_EPOCH   = 499
BSTAR          = .1768549E-2
MEAN_MOTION_DOT = .9945E-3
MEAN_MOTION_DDOT = 0

CCSDS_OMM_VERS = 2.0
CREATION_DATE  = 
ORIGINATOR     = 

OBJECT_NAME    = STARLINK-35949
OBJECT_ID      = 2025-271P
CENTER_NAME    = EARTH
REF_FRAME      = TEME
TIME_SYSTEM    = UTC
MEAN_ELEMENT_THEORY = SGP/SGP4

EPOCH          = 2025-12-17T19:34:25.852800
MEAN_MOTION    = 15.49440345
ECCENTRICITY   = .00006752
INCLINATION    = 53.1598
RA_OF_ASC_NODE = 162.9104
ARG_OF_PERICENTER = 90.8947
MEAN_ANOMALY   = 269.2139

EPHEMERIS_TYPE = 0
CLASSIFICATION_TYPE = U
NORAD_CAT_ID   = 66630
ELEMENT_SET_NO = 999
REV_AT_EPOCH   = 499
BSTAR          = .1552486E-2
MEAN_MOTION_DOT = .87268E-3
MEAN_MOTION_DDOT = 0

CCSDS_OMM_VERS = 2.0
CREATION_DATE  = 
ORIGINATOR     = 

OBJECT_NAME    = STARLINK-35965
OBJECT_ID      = 2025-271Q
CENTER_NAME    = EARTH
REF_FRAME      = TEME
TIME_SYSTEM    = UTC
MEAN_ELEMENT_THEORY = SGP/SGP4

EPOCH          = 2025-12-17T19:33:57.897216
MEAN_MOTION    = 15.49252292
ECCENTRICITY   = .00013333
INCLINATION    = 53.1593
RA_OF_ASC_NODE = 162.9089
ARG_OF_PERICENTER = 57.8715
MEAN_ANOMALY   = 302.2423

EPHEMERIS_TYPE = 0
CLASSIFICATION_TYPE = U
NORAD_CAT_ID   = 66631
ELEMENT_SET_NO = 999
REV_AT_EPOCH   = 499
BSTAR          = .2905355E-4
MEAN_MOTION_DOT = .1165E-4
MEAN_MOTION_DDOT = 0

CCSDS_OMM_VERS = 2.0
CREATION_DATE  = 
ORIGINATOR     = 

OBJECT_NAME    = STARLINK-35973
OBJECT_ID      = 2025-271R
CENTER_NAME    = EARTH
REF_FRAME      = TEME
TIME_SYSTEM    = UTC
MEAN_ELEMENT_THEORY = SGP/SGP4

EPOCH          = 2025-12-17T22:00:01.999584
MEAN_MOTION    = 15.39580130
ECCENTRICITY   = .00011935
INCLINATION    = 53.1584
RA_OF_ASC_NODE = 162.6357
ARG_OF_PERICENTER = 92.2571
MEAN_ANOMALY   = 7.9778

EPHEMERIS_TYPE = 0
CLASSIFICATION_TYPE = U
NORAD_CAT_ID   = 66632
ELEMENT_SET_NO = 999
REV_AT_EPOCH   = 501
BSTAR          = .18146305E-2
MEAN_MOTION_DOT = .72784E-3
MEAN_MOTION_DDOT = 0

CCSDS_OMM_VERS = 2.0
CREATION_DATE  = 
ORIGINATOR     = 

OBJECT_NAME    = STARLINK-35948
OBJECT_ID      = 2025-271S
CENTER_NAME    = EARTH
REF_FRAME      = TEME
TIME_SYSTEM    = UTC
MEAN_ELEMENT_THEORY = SGP/SGP4

EPOCH          = 2025-12-17T22:00:01.999584
MEAN_MOTION    = 15.39579936
ECCENTRICITY   = .00011349
INCLINATION    = 53.1584
RA_OF_ASC_NODE = 162.6310
ARG_OF_PERICENTER = 88.0990
MEAN_ANOMALY   = 13.9599

EPHEMERIS_TYPE = 0
CLASSIFICATION_TYPE = U
NORAD_CAT_ID   = 66633
ELEMENT_SET_NO = 999
REV_AT_EPOCH   = 507
BSTAR          = .17949121E-2
MEAN_MOTION_DOT = .71981E-3
MEAN_MOTION_DDOT = 0

CCSDS_OMM_VERS = 2.0
CREATION_DATE  = 
ORIGINATOR     = 

OBJECT_NAME    = STARLINK-35967
OBJECT_ID      = 2025-271T
CENTER_NAME    = EARTH
REF_FRAME      = TEME
TIME_SYSTEM    = UTC
MEAN_ELEMENT_THEORY = SGP/SGP4

EPOCH          = 2025-12-17T22:00:01.999584
MEAN_MOTION    = 15.39597163
ECCENTRICITY   = .00008458
INCLINATION    = 53.1596
RA_OF_ASC_NODE = 162.5788
ARG_OF_PERICENTER = 52.1627
MEAN_ANOMALY   = 75.5826

EPHEMERIS_TYPE = 0
CLASSIFICATION_TYPE = U
NORAD_CAT_ID   = 66634
ELEMENT_SET_NO = 999
REV_AT_EPOCH   = 500
BSTAR          = .21337342E-2
MEAN_MOTION_DOT = .8585E-3
MEAN_MOTION_DDOT = 0

CCSDS_OMM_VERS = 2.0
CREATION_DATE  = 
ORIGINATOR     = 

OBJECT_NAME    = STARLINK-35955
OBJECT_ID      = 2025-271U
CENTER_NAME    = EARTH
REF_FRAME      = TEME
TIME_SYSTEM    = UTC
MEAN_ELEMENT_THEORY = SGP/SGP4

EPOCH          = 2025-12-17T22:00:01.999584
MEAN_MOTION    = 15.39553677
ECCENTRICITY   = .00011892
INCLINATION    = 53.1598
RA_OF_ASC_NODE = 162.4770
ARG_OF_PERICENTER = 83.5381
MEAN_ANOMALY   = 95.8186

EPHEMERIS_TYPE = 0
CLASSIFICATION_TYPE = U
NORAD_CAT_ID   = 66635
ELEMENT_SET_NO = 999
REV_AT_EPOCH   = 507
BSTAR          = .20622341E-2
MEAN_MOTION_DOT = .82807E-3
MEAN_MOTION_DDOT = 0

CCSDS_OMM_VERS = 2.0
CREATION_DATE  = 
ORIGINATOR     = 

OBJECT_NAME    = STARLINK-35968
OBJECT_ID      = 2025-271V
CENTER_NAME    = EARTH
REF_FRAME      = TEME
TIME_SYSTEM    = UTC
MEAN_ELEMENT_THEORY = SGP/SGP4

EPOCH          = 2025-12-17T22:00:01.999584
MEAN_MOTION    = 15.39572380
ECCENTRICITY   = .00006247
INCLINATION    = 53.1600
RA_OF_ASC_NODE = 162.5279
ARG_OF_PERICENTER = 93.5664
MEAN_ANOMALY   = 59.9177

EPHEMERIS_TYPE = 0
CLASSIFICATION_TYPE = U
NORAD_CAT_ID   = 66636
ELEMENT_SET_NO = 999
REV_AT_EPOCH   = 507
BSTAR          = .18454956E-2
MEAN_MOTION_DOT = .74022E-3
MEAN_MOTION_DDOT = 0

CCSDS_OMM_VERS = 2.0
CREATION_DATE  = 
ORIGINATOR     = 

OBJECT_NAME    = STARLINK-35953
OBJECT_ID      = 2025-271W
CENTER_NAME    = EARTH
REF_FRAME      = TEME
TIME_SYSTEM    = UTC
MEAN_ELEMENT_THEORY = SGP/SGP4

EPOCH          = 2025-12-17T22:00:01.999584
MEAN_MOTION    = 15.42724815
ECCENTRICITY   = .00017033
INCLINATION    = 53.1597
RA_OF_ASC_NODE = 162.4341
ARG_OF_PERICENTER = 52.2869
MEAN_ANOMALY   = 148.7150

EPHEMERIS_TYPE = 0
CLASSIFICATION_TYPE = U
NORAD_CAT_ID   = 66637
ELEMENT_SET_NO = 999
REV_AT_EPOCH   = 507
BSTAR          = -.44964506E-1
MEAN_MOTION_DOT = -.1799366E-1
MEAN_MOTION_DDOT = 0

CCSDS_OMM_VERS = 2.0
CREATION_DATE  = 
ORIGINATOR     = 

OBJECT_NAME    = STARLINK-35972
OBJECT_ID      = 2025-271X
CENTER_NAME    = EARTH
REF_FRAME      = TEME
TIME_SYSTEM    = UTC
MEAN_ELEMENT_THEORY = SGP/SGP4

EPOCH          = 2025-12-17T19:30:29.230848
MEAN_MOTION    = 15.49326435
ECCENTRICITY   = .00009546
INCLINATION    = 53.1593
RA_OF_ASC_NODE = 162.8921
ARG_OF_PERICENTER = 44.6162
MEAN_ANOMALY   = 315.4923

EPHEMERIS_TYPE = 0
CLASSIFICATION_TYPE = U
NORAD_CAT_ID   = 66638
ELEMENT_SET_NO = 999
REV_AT_EPOCH   = 499
BSTAR          = .99464163E-3
MEAN_MOTION_DOT = .55296E-3
MEAN_MOTION_DDOT = 0

