STARLINK-35904          
1 66627U 25271L   25351.91668981 -.02032314  00000+0 -47552-1 0  9998
2 66627  53.1598 162.4557 0001378  75.1867 116.2281 15.45061365  4914
STARLINK-35862          
1 66628U 25271M   25351.81629190  .00068852  00000+0  12368-2 0  9997
2 66628  53.1595 162.9167 0000660  54.5252 305.5819 15.49271616  4990
STARLINK-35956          
1 66629U 25271N   25351.81592401  .00099450  00000+0  17685-2 0  9997
2 66629  53.1592 162.9137 0001112  52.1003 308.0107 15.49388285  4995
STARLINK-35949          
1 66630U 25271P   25351.81557700  .00087268  00000+0  15525-2 0  9997
2 66630  53.1598 162.9104 0000675  90.8947 269.2139 15.49440345  4995
STARLINK-35965          
1 66631U 25271Q   25351.81525344  .00001165  00000+0  29054-4 0  9993
2 66631  53.1593 162.9089 0001333  57.8715 302.2423 15.49252292  4997
STARLINK-35973          
1 66632U 25271R   25351.91668981  .00072784  00000+0  18146-2 0  9993
2 66632  53.1584 162.6357 0001193  92.2571   7.9778 15.39580130  5010
STARLINK-35948          
1 66633U 25271S   25351.91668981  .00071981  00000+0  17949-2 0  9992
2 66633  53.1584 162.6310 0001134  88.0990  13.9599 15.39579936  5079
STARLINK-35967          
1 66634U 25271T   25351.91668981  .00085850  00000+0  21337-2 0  9999
2 66634  53.1596 162.5788 0000845  52.1627  75.5826 15.39597163  5000
STARLINK-35955          
1 66635U 25271U   25351.91668981  .00082807  00000+0  20622-2 0  9995
2 66635  53.1598 162.4770 0001189  83.5381  95.8186 15.39553677  5073
STARLINK-35968          
1 66636U 25271V   25351.91668981  .00074022  00000+0  18455-2 0  9997
2 66636  53.1600 162.5279 0000624  93.5664  59.9177 15.39572380  5074
STARLINK-35953          
1 66637U 25271W   25351.91668981 -.01799366  00000+0 -44965-1 0  9990
2 66637  53.1597 162.4341 0001703  52.2869 148.7150 15.42724815  5071
STARLINK-35972          
1 66638U 25271X   25351.81283832  .00055296  00000+0  99464-3 0  9998
2 66638  53.1593 162.8921 0000954  44.6162 315.4923 15.49326435  4998
